{"type": "FeatureCollection", "features": [ {"type": "Feature", "properties": {"norad_id": 28649, "name": "IRS-P5 (CARTOSAT-1)", "group": "resource", "lat": 79.08768792131882, "lon": -33.49618175232776, "alt_km": 588.5680339893497, "timestamp": "2025-12-09T09:46:47.303434+00:00", "meta": {"OBJECT_NAME": "IRS-P5 (CARTOSAT-1)", "OBJECT_ID": "2005-017A", "EPOCH": "2025-12-08T23:44:41.909280", "MEAN_MOTION": 14.90384637, "ECCENTRICITY": 0.00014574, "INCLINATION": 97.5496, "RA_OF_ASC_NODE": 9.5689, "ARG_OF_PERICENTER": 47.5275, "MEAN_ANOMALY": 312.6066, "EPHEMERIS_TYPE": 0, "CLASSIFICATION_TYPE": "U", "NORAD_CAT_ID": 28649, "ELEMENT_SET_NO": 999, "REV_AT_EPOCH": 11548, "BSTAR": 0.00019534507, "MEAN_MOTION_DOT": 1.849e-05, "MEAN_MOTION_DDOT": 0}, "tle": {"line1": "1 28649U 05017A   25342.98937395  .00001849  00000+0  19535-3 0  9998", "line2": "2 28649  97.5496   9.5689 0001457  47.5275 312.6066 14.90384637115483"}}, "geometry": {"type": "Point", "coordinates": [-33.49618175232776, 79.08768792131882]}}, {"type": "Feature", "properties": {"norad_id": 28893, "name": "SINAH 1", "group": "resource", "lat": 31.346707689363672, "lon": 106.87911440680261, "alt_km": 683.1922123431405, "timestamp": "2025-12-09T09:46:47.303445+00:00", "meta": {"OBJECT_NAME": "SINAH 1", "OBJECT_ID": "2005-043D", "EPOCH": "2025-12-08T22:09:09.095616", "MEAN_MOTION": 14.6395548, "ECCENTRICITY": 0.00151502, "INCLINATION": 98.2601, "RA_OF_ASC_NODE": 111.4701, "ARG_OF_PERICENTER": 148.344, "MEAN_ANOMALY": 211.8677, "EPHEMERIS_TYPE": 0, "CLASSIFICATION_TYPE": "U", "NORAD_CAT_ID": 28893, "ELEMENT_SET_NO": 999, "REV_AT_EPOCH": 7268, "BSTAR": 0.00016385741, "MEAN_MOTION_DOT": 8.1e-06, "MEAN_MOTION_DDOT": 0}, "tle": {"line1": "1 28893U 05043D   25342.92302194  .00000810  00000+0  16386-3 0  9993", "line2": "2 28893  98.2601 111.4701 0015150 148.3440 211.8677 14.63955480 72689"}}, "geometry": {"type": "Point", "coordinates": [106.87911440680261, 31.346707689363672]}}, {"type": "Feature", "properties": {"norad_id": 29079, "name": "EROS B", "group": "resource", "lat": -59.5194335043904, "lon": -92.83890874067039, "alt_km": 374.1380891008748, "timestamp": "2025-12-09T09:46:47.303456+00:00", "meta": {"OBJECT_NAME": "EROS B", "OBJECT_ID": "2006-014A", "EPOCH": "2025-12-08T22:01:39.287712", "MEAN_MOTION": 15.66722139, "ECCENTRICITY": 0.00016162, "INCLINATION": 97.3478, "RA_OF_ASC_NODE": 99.3139, "ARG_OF_PERICENTER": 281.4066, "MEAN_ANOMALY": 78.7013, "EPHEMERIS_TYPE": 0, "CLASSIFICATION_TYPE": "U", "NORAD_CAT_ID": 29079, "ELEMENT_SET_NO": 999, "REV_AT_EPOCH": 9020, "BSTAR": 0.0015590958, "MEAN_MOTION_DOT": 0.0016663, "MEAN_MOTION_DDOT": 0}, "tle": {"line1": "1 29079U 06014A   25342.91781583  .00166630  00000+0  15591-2 0  9990", "line2": "2 29079  97.3478  99.3139 0001616 281.4066  78.7013 15.66722139 90201"}}, "geometry": {"type": "Point", "coordinates": [-92.83890874067039, -59.5194335043904]}}, {"type": "Feature", "properties": {"norad_id": 29228, "name": "RESURS-DK 1", "group": "resource", "lat": 69.81815633332108, "lon": -153.51604596476642, "alt_km": 527.4643762252563, "timestamp": "2025-12-09T09:46:47.303467+00:00", "meta": {"OBJECT_NAME": "RESURS-DK 1", "OBJECT_ID": "2006-021A", "EPOCH": "2025-12-08T19:05:06.967392", "MEAN_MOTION": 15.12128967, "ECCENTRICITY": 0.00076083, "INCLINATION": 69.9338, "RA_OF_ASC_NODE": 112.0315, "ARG_OF_PERICENTER": 262.3971, "MEAN_ANOMALY": 97.6331, "EPHEMERIS_TYPE": 0, "CLASSIFICATION_TYPE": "U", "NORAD_CAT_ID": 29228, "ELEMENT_SET_NO": 999, "REV_AT_EPOCH": 7378, "BSTAR": 0.00029266812, "MEAN_MOTION_DOT": 4.953e-05, "MEAN_MOTION_DDOT": 0}, "tle": {"line1": "1 29228U 06021A   25342.79521953  .00004953  00000+0  29267-3 0  9998", "line2": "2 29228  69.9338 112.0315 0007608 262.3971  97.6331 15.12128967 73783"}}, "geometry": {"type": "Point", "coordinates": [-153.51604596476642, 69.81815633332108]}}, {"type": "Feature", "properties": {"norad_id": 29268, "name": "ARIRANG-2 (KOMPSAT-2)", "group": "resource", "lat": -67.58089768247034, "lon": -168.48448360765585, "alt_km": 677.5406350513831, "timestamp": "2025-12-09T09:46:47.303478+00:00", "meta": {"OBJECT_NAME": "ARIRANG-2 (KOMPSAT-2)", "OBJECT_ID": "2006-031A", "EPOCH": "2025-12-08T23:20:13.382304", "MEAN_MOTION": 14.64489414, "ECCENTRICITY": 0.0013717, "INCLINATION": 97.8258, "RA_OF_ASC_NODE": 171.6287, "ARG_OF_PERICENTER": 321.9848, "MEAN_ANOMALY": 196.5971, "EPHEMERIS_TYPE": 0, "CLASSIFICATION_TYPE": "U", "NORAD_CAT_ID": 29268, "ELEMENT_SET_NO": 999, "REV_AT_EPOCH": 3363, "BSTAR": 0.00017144497, "MEAN_MOTION_DOT": 8.64e-06, "MEAN_MOTION_DDOT": 0}, "tle": {"line1": "1 29268U 06031A   25342.97237711  .00000864  00000+0  17144-3 0  9997", "line2": "2 29268  97.8258 171.6287 0013717 321.9848 196.5971 14.64489414 33632"}}, "geometry": {"type": "Point", "coordinates": [-168.48448360765585, -67.58089768247034]}}, {"type": "Feature", "properties": {"norad_id": 29709, "name": "LAPAN-TUBSAT", "group": "resource", "lat": -27.91899328596085, "lon": -22.163260031918718, "alt_km": 620.9096509419151, "timestamp": "2025-12-09T09:46:47.303489+00:00", "meta": {"OBJECT_NAME": "LAPAN-TUBSAT", "OBJECT_ID": "2007-001A", "EPOCH": "2025-12-08T22:35:30.048864", "MEAN_MOTION": 14.85663161, "ECCENTRICITY": 0.00136794, "INCLINATION": 98.1252, "RA_OF_ASC_NODE": 333.0193, "ARG_OF_PERICENTER": 85.4098, "MEAN_ANOMALY": 274.8678, "EPHEMERIS_TYPE": 0, "CLASSIFICATION_TYPE": "U", "NORAD_CAT_ID": 29709, "ELEMENT_SET_NO": 999, "REV_AT_EPOCH": 2290, "BSTAR": 0.00018403176, "MEAN_MOTION_DOT": 1.54e-05, "MEAN_MOTION_DDOT": 0}, "tle": {"line1": "1 29709U 07001A   25342.94132001  .00001540  00000+0  18403-3 0  9999", "line2": "2 29709  98.1252 333.0193 0013679  85.4098 274.8678 14.85663161 22904"}}, "geometry": {"type": "Point", "coordinates": [-22.163260031918718, -27.91899328596085]}}, {"type": "Feature", "properties": {"norad_id": 31113, "name": "HAIYANG-1B", "group": "resource", "lat": 26.929561088286572, "lon": 152.0920450948577, "alt_km": 790.1852021903524, "timestamp": "2025-12-09T09:46:47.303505+00:00", "meta": {"OBJECT_NAME": "HAIYANG-1B", "OBJECT_ID": "2007-010A", "EPOCH": "2025-12-08T23:00:03.967200", "MEAN_MOTION": 14.30962926, "ECCENTRICITY": 0.0014422, "INCLINATION": 98.331, "RA_OF_ASC_NODE": 327.3928, "ARG_OF_PERICENTER": 48.4955, "MEAN_ANOMALY": 311.7464, "EPHEMERIS_TYPE": 0, "CLASSIFICATION_TYPE": "U", "NORAD_CAT_ID": 31113, "ELEMENT_SET_NO": 999, "REV_AT_EPOCH": 97342, "BSTAR": 9.0234542e-05, "MEAN_MOTION_DOT": 1.96e-06, "MEAN_MOTION_DDOT": 0}, "tle": {"line1": "1 31113U 07010A   25342.95837925  .00000196  00000+0  90235-4 0  9999", "line2": "2 31113  98.3310 327.3928 0014422  48.4955 311.7464 14.30962926973420"}}, "geometry": {"type": "Point", "coordinates": [152.0920450948577, 26.929561088286572]}}, {"type": "Feature", "properties": {"norad_id": 31598, "name": "COSMO-SKYMED 1", "group": "resource", "lat": 12.312251232985139, "lon": -9.48196914476365, "alt_km": 581.3896468681469, "timestamp": "2025-12-09T09:46:47.303527+00:00", "meta": {"OBJECT_NAME": "COSMO-SKYMED 1", "OBJECT_ID": "2007-023A", "EPOCH": "2025-12-08T23:24:00.804384", "MEAN_MOTION": 14.95719221, "ECCENTRICITY": 0.0001056, "INCLINATION": 97.8835, "RA_OF_ASC_NODE": 168.3499, "ARG_OF_PERICENTER": 82.279, "MEAN_ANOMALY": 277.8551, "EPHEMERIS_TYPE": 0, "CLASSIFICATION_TYPE": "U", "NORAD_CAT_ID": 31598, "ELEMENT_SET_NO": 999, "REV_AT_EPOCH": 134, "BSTAR": 0.0004210085, "MEAN_MOTION_DOT": 4.63e-05, "MEAN_MOTION_DDOT": 0}, "tle": {"line1": "1 31598U 07023A   25342.97500931  .00004630  00000+0  42101-3 0  9991", "line2": "2 31598  97.8835 168.3499 0001056  82.2790 277.8551 14.95719221  1342"}}, "geometry": {"type": "Point", "coordinates": [-9.48196914476365, 12.312251232985139]}}, {"type": "Feature", "properties": {"norad_id": 31698, "name": "TERRASAR-X", "group": "resource", "lat": -79.86276784756586, "lon": 121.83361143862292, "alt_km": 516.9146766255417, "timestamp": "2025-12-09T09:46:47.303548+00:00", "meta": {"OBJECT_NAME": "TERRASAR-X", "OBJECT_ID": "2007-026A", "EPOCH": "2025-12-08T12:04:27.872832", "MEAN_MOTION": 15.19158704, "ECCENTRICITY": 0.0001724, "INCLINATION": 97.4451, "RA_OF_ASC_NODE": 347.9445, "ARG_OF_PERICENTER": 89.3855, "MEAN_ANOMALY": 270.7577, "EPHEMERIS_TYPE": 0, "CLASSIFICATION_TYPE": "U", "NORAD_CAT_ID": 31698, "ELEMENT_SET_NO": 999, "REV_AT_EPOCH": 2427, "BSTAR": 0.00014009, "MEAN_MOTION_DOT": 2.877e-05, "MEAN_MOTION_DDOT": 0}, "tle": {"line1": "1 31698U 07026A   25342.50310038  .00002877  00000+0  14009-3 0  9998", "line2": "2 31698  97.4451 347.9445 0001724  89.3855 270.7577 15.19158704 24278"}}, "geometry": {"type": "Point", "coordinates": [121.83361143862292, -79.86276784756586]}}, {"type": "Feature", "properties": {"norad_id": 32060, "name": "WORLDVIEW-1 (WV-1)", "group": "resource", "lat": -18.533342890081755, "lon": -81.55599961653867, "alt_km": 497.21251997310355, "timestamp": "2025-12-09T09:46:47.303562+00:00", "meta": {"OBJECT_NAME": "WORLDVIEW-1 (WV-1)", "OBJECT_ID": "2007-041A", "EPOCH": "2025-12-08T21:53:06.561600", "MEAN_MOTION": 15.24589511, "ECCENTRICITY": 7.757e-05, "INCLINATION": 97.3841, "RA_OF_ASC_NODE": 100.4473, "ARG_OF_PERICENTER": 102.6667, "MEAN_ANOMALY": 257.4658, "EPHEMERIS_TYPE": 0, "CLASSIFICATION_TYPE": "U", "NORAD_CAT_ID": 32060, "ELEMENT_SET_NO": 999, "REV_AT_EPOCH": 1389, "BSTAR": 0.00039710816, "MEAN_MOTION_DOT": 9.722e-05, "MEAN_MOTION_DDOT": 0}, "tle": {"line1": "1 32060U 07041A   25342.91188150  .00009722  00000+0  39711-3 0  9995", "line2": "2 32060  97.3841 100.4473 0000775 102.6667 257.4658 15.24589511 13890"}}, "geometry": {"type": "Point", "coordinates": [-81.55599961653867, -18.533342890081755]}}]}